{
  "type": "FeatureCollection",
  "features": [
    {
      "type": "Feature",
      "properties": {
        "norad_id": 47116,
        "name": "COSMOS 2251 DEB",
        "group": "cosmos-2251-debris",
        "lat": -47.038855652887165,
        "lon": 64.3309499343876,
        "alt_km": 577.8931292683519,
        "timestamp": "2025-12-19T18:58:41.984589+00:00",
        "meta_object_name": "COSMOS 2251 DEB",
        "meta_object_id": "1993-036BYJ",
        "meta_epoch": "2025-12-17T22:44:25.492992",
        "meta_mean_motion": 14.98433598,
        "meta_eccentricity": 0.00213127,
        "meta_inclination": 74.0233,
        "meta_ra_of_asc_node": 230.1515,
        "meta_arg_of_pericenter": 323.4041,
        "meta_mean_anomaly": 47.2172,
        "meta_ephemeris_type": 0,
        "meta_classification_type": "U",
        "meta_norad_cat_id": 47116,
        "meta_element_set_no": 999,
        "meta_rev_at_epoch": 59589,
        "meta_bstar": 0.0014083931,
        "meta_mean_motion_dot": 0.000169,
        "meta_mean_motion_ddot": 0,
        "tle_line1": "1 47116U 93036BYJ 25351.94751728  .00016900  00000+0  14084-2 0  9993",
        "tle_line2": "2 47116  74.0233 230.1515 0021312 323.4041  47.2172 14.98433598595896"
      },
      "geometry": {
        "type": "Point",
        "coordinates": [
          64.3309499343876,
          -47.038855652887165
        ]
      }
    },
    {
      "type": "Feature",
      "properties": {
        "norad_id": 53093,
        "name": "COSMOS 2251 DEB",
        "group": "cosmos-2251-debris",
        "lat": 58.26622029556175,
        "lon": -44.043210830047244,
        "alt_km": 738.7569658730017,
        "timestamp": "2025-12-19T18:58:41.984599+00:00",
        "meta_object_name": "COSMOS 2251 DEB",
        "meta_object_id": "1993-036BYP",
        "meta_epoch": "2025-12-19T05:22:15.091392",
        "meta_mean_motion": 14.41913445,
        "meta_eccentricity": 0.00196172,
        "meta_inclination": 74.0369,
        "meta_ra_of_asc_node": 289.4365,
        "meta_arg_of_pericenter": 5.5053,
        "meta_mean_anomaly": 354.6315,
        "meta_ephemeris_type": 0,
        "meta_classification_type": "U",
        "meta_norad_cat_id": 53093,
        "meta_element_set_no": 999,
        "meta_rev_at_epoch": 17819,
        "meta_bstar": 0.00058739563,
        "meta_mean_motion_dot": 1.902e-05,
        "meta_mean_motion_ddot": 0,
        "tle_line1": "1 53093U 93036BYP 25353.22378578  .00001902  00000+0  58740-3 0  9999",
        "tle_line2": "2 53093  74.0369 289.4365 0019617   5.5053 354.6315 14.41913445178199"
      },
      "geometry": {
        "type": "Point",
        "coordinates": [
          -44.043210830047244,
          58.26622029556175
        ]
      }
    }
  ]
}